{
    "links": {
        "self": "http://www.neowsapp.com/rest/v1/neo/3841529?api_key=iIulBulltgU6a56xZRHN4H3l9WmuAYTsLGpBGhQ2"
    },
    "id": "3841529",
    "neo_reference_id": "3841529",
    "name": "(2019 HO)",
    "designation": "2019 HO",
    "nasa_jpl_url": "http://ssd.jpl.nasa.gov/sbdb.cgi?sstr=3841529",
    "absolute_magnitude_h": 23.9,
    "estimated_diameter": {
        "kilometers": {
            "estimated_diameter_min": 0.04411182,
            "estimated_diameter_max": 0.0986370281
        },
        "meters": {
            "estimated_diameter_min": 44.1118199997,
            "estimated_diameter_max": 98.6370281305
        },
        "miles": {
            "estimated_diameter_min": 0.0274098057,
            "estimated_diameter_max": 0.0612901888
        },
        "feet": {
            "estimated_diameter_min": 144.7238235278,
            "estimated_diameter_max": 323.6123073718
        }
    },
    "is_potentially_hazardous_asteroid": false,
    "close_approach_data": [
        {
            "close_approach_date": "1904-12-17",
            "close_approach_date_full": "1904-Dec-17 17:07",
            "epoch_date_close_approach": -2052456780000,
            "relative_velocity": {
                "kilometers_per_second": "2.5338128175",
                "kilometers_per_hour": "9121.7261430764",
                "miles_per_hour": "5667.8858915132"
            },
            "miss_distance": {
                "astronomical": "1.9712503237",
                "lunar": "766.8163759193",
                "kilometers": "294894849.662330519",
                "miles": "183239162.6672944022"
            },
            "orbiting_body": "Juptr"
        },
        {
            "close_approach_date": "2016-04-30",
            "close_approach_date_full": "2016-Apr-30 20:42",
            "epoch_date_close_approach": 1462048920000,
            "relative_velocity": {
                "kilometers_per_second": "8.9554753085",
                "kilometers_per_hour": "32239.7111104635",
                "miles_per_hour": "20032.5027174988"
            },
            "miss_distance": {
                "astronomical": "0.1188653147",
                "lunar": "46.2386074183",
                "kilometers": "17781997.895999689",
                "miles": "11049221.1333821482"
            },
            "orbiting_body": "Earth"
        },
        {
            "close_approach_date": "2019-04-27",
            "close_approach_date_full": "2019-Apr-27 18:39",
            "epoch_date_close_approach": 1556390340000,
            "relative_velocity": {
                "kilometers_per_second": "8.3448225568",
                "kilometers_per_hour": "30041.3612046574",
                "miles_per_hour": "18666.5335774162"
            },
            "miss_distance": {
                "astronomical": "0.0960318306",
                "lunar": "37.3563821034",
                "kilometers": "14366157.309960822",
                "miles": "8926716.2150784636"
            },
            "orbiting_body": "Earth"
        }
    ],
    "orbital_data": {
        "orbit_id": "9",
        "orbit_determination_date": "2019-05-22 07:54:33",
        "first_observation_date": "2019-04-23",
        "last_observation_date": "2019-05-14",
        "data_arc_in_days": 21,
        "observations_used": 40,
        "orbit_uncertainty": "7",
        "minimum_orbit_intersection": ".0531165",
        "jupiter_tisserand_invariant": "3.592",
        "epoch_osculation": "2459000.5",
        "eccentricity": ".4922629001110333",
        "semi_major_axis": "2.078802808683953",
        "inclination": "8.27455463070299",
        "ascending_node_longitude": "24.08362908401116",
        "orbital_period": "1094.758609419831",
        "perihelion_distance": "1.055485309322229",
        "perihelion_argument": "175.9762471948945",
        "aphelion_distance": "3.102120308045677",
        "perihelion_time": "2458589.536891406237",
        "mean_anomaly": "135.1409505444849",
        "mean_motion": ".3288396153292482",
        "equinox": "J2000",
        "orbit_class": {
            "orbit_class_type": "AMO",
            "orbit_class_description": "Near-Earth asteroid orbits similar to that of 1221 Amor",
            "orbit_class_range": "1.017 AU < q (perihelion) < 1.3 AU"
        }
    },
    "is_sentry_object": false
}